OBJECT_NAME,OBJECT_ID,EPOCH,MEAN_MOTION,ECCENTRICITY,INCLINATION,RA_OF_ASC_NODE,ARG_OF_PERICENTER,MEAN_ANOMALY,EPHEMERIS_TYPE,CLASSIFICATION_TYPE,NORAD_CAT_ID,ELEMENT_SET_NO,REV_AT_EPOCH,BSTAR,MEAN_MOTION_DOT,MEAN_MOTION_DDOT
IRIDIUM 154,2018-061F,2026-07-04T07:47:50.373312,14.34217925,.00022526,86.3949,49.6399,89.3184,270.8270,0,U,43574,999,41586,-.1265592E-5,.16E-6,0
IRIDIUM 163,2018-061G,2026-07-04T14:02:18.428064,14.34217865,.00021579,86.3945,49.4458,84.4332,275.7110,0,U,43575,999,41587,.2007558E-5,.25E-6,0
IRIDIUM 156,2018-061H,2026-07-04T08:24:22.381920,14.34217586,.00020244,86.3945,49.5510,89.3205,270.8223,0,U,43576,999,41583,.50403167E-4,.161E-5,0
IRIDIUM 164,2018-061J,2026-07-04T07:56:58.462080,14.34217883,.00022571,86.3946,49.5997,89.6468,270.4987,0,U,43577,999,41587,.7221127E-5,.4E-6,0
IRIDIUM 159,2018-061K,2026-07-04T00:29:26.458368,14.34218010,.00022167,86.3944,49.6662,84.4412,275.7036,0,U,43578,999,41579,.12765764E-4,.56E-6,0
IRIDIUM 180,2019-002A,2026-07-04T10:31:30.870336,14.34218425,.00022075,86.3981,346.3848,89.7603,270.3846,0,U,43922,999,39146,.82145216E-4,.25E-5,0
IRIDIUM 176,2019-002B,2026-07-04T10:08:53.220480,14.72238367,.00023633,86.6101,346.3324,88.1955,271.9533,0,U,43923,999,40178,.14348487E-3,.929E-5,0
IRIDIUM 168,2019-002C,2026-07-04T10:22:22.626048,14.34217495,.00022057,86.3984,346.4652,90.2582,269.8867,0,U,43924,999,39144,.1900926E-5,.25E-6,0
IRIDIUM 173,2019-002D,2026-07-04T05:02:42.897408,14.34218165,.00021563,86.3981,346.4463,89.6559,270.4883,0,U,43925,999,39139,.23340849E-4,.85E-6,0
IRIDIUM 169,2019-002E,2026-07-04T12:02:58.421184,14.38612613,.00016565,86.4218,17.9524,91.8535,268.2853,0,U,43926,999,39271,.12781569E-3,.411E-5,0
IRIDIUM 172,2019-002F,2026-07-04T09:54:58.888512,14.34218331,.00022114,86.3981,346.3694,89.2010,270.9440,0,U,43927,999,39143,.394598E-4,.13E-5,0
IRIDIUM 175,2019-002G,2026-07-04T06:11:26.098080,14.43622605,.00045106,86.4518,283.3855,137.4528,222.7023,0,U,43928,999,40144,.1085962E-3,.388E-5,0
IRIDIUM 171,2019-002H,2026-07-04T09:27:34.900416,14.34218154,.00021617,86.3990,346.6854,94.5820,265.5623,0,U,43929,999,39142,.21330335E-4,.8E-6,0
IRIDIUM 170,2019-002J,2026-07-04T10:17:46.672224,14.72238861,.00023943,86.6100,346.3320,84.6498,275.4992,0,U,43930,999,40179,.14326012E-3,.928E-5,0
IRIDIUM 167,2019-002K,2026-07-04T10:58:54.856704,14.34218058,.00020803,86.3981,346.3733,98.7458,261.3974,0,U,43931,999,39143,.11781597E-4,.53E-6,0
IRIDIUM 181,2023-068S,2026-07-04T08:52:02.306496,14.43308227,.00024985,86.4486,49.6065,86.3231,273.8255,0,U,56726,999,16491,.96305407E-4,.344E-5,0
IRIDIUM 177,2023-068T,2026-07-04T15:06:47.571264,14.80016278,.00021251,86.1979,320.5087,91.8553,268.2911,0,U,56727,999,16894,.15418599E-3,.1192E-4,0
IRIDIUM 174,2023-068U,2026-07-04T09:59:56.926176,14.72247009,.00021804,86.6109,346.4864,80.5879,279.5584,0,U,56728,999,16855,.14904169E-3,.964E-5,0
IRIDIUM 178,2023-068V,2026-07-04T11:36:10.976832,14.80020188,.00023235,86.6532,18.1305,86.2247,273.9240,0,U,56729,999,16892,.1424368E-3,.1103E-4,0
IRIDIUM 179,2023-068W,2026-07-04T13:05:53.667456,14.80025245,.00022441,86.6767,27.1358,89.4078,270.7401,0,U,56730,999,16893,.15634264E-3,.1208E-4,0
