IRIDIUM 154             
1 43574U 18061F   26185.32488858  .00000016  00000+0 -12656-5 0  9999
2 43574  86.3949  49.6399 0002252  89.3184 270.8270 14.34217925415866
IRIDIUM 163             
1 43575U 18061G   26185.58493551  .00000025  00000+0  20076-5 0  9998
2 43575  86.3945  49.4458 0002157  84.4332 275.7110 14.34217865415873
IRIDIUM 156             
1 43576U 18061H   26185.35025905  .00000161  00000+0  50403-4 0  9995
2 43576  86.3945  49.5510 0002024  89.3205 270.8223 14.34217586415837
IRIDIUM 164             
1 43577U 18061J   26185.33123220  .00000040  00000+0  72211-5 0  9991
2 43577  86.3946  49.5997 0002257  89.6468 270.4987 14.34217883415877
IRIDIUM 159             
1 43578U 18061K   26185.02044512  .00000056  00000+0  12766-4 0  9999
2 43578  86.3944  49.6662 0002216  84.4412 275.7036 14.34218010415790
IRIDIUM 180             
1 43922U 19002A   26185.43855174  .00000250  00000+0  82145-4 0  9991
2 43922  86.3981 346.3848 0002207  89.7603 270.3846 14.34218425391464
IRIDIUM 176             
1 43923U 19002B   26185.42283820  .00000929  00000+0  14348-3 0  9996
2 43923  86.6101 346.3324 0002363  88.1955 271.9533 14.72238367401783
IRIDIUM 168             
1 43924U 19002C   26185.43220632  .00000025  00000+0  19009-5 0  9998
2 43924  86.3984 346.4652 0002205  90.2582 269.8867 14.34217495391444
IRIDIUM 173             
1 43925U 19002D   26185.21021872  .00000085  00000+0  23341-4 0  9999
2 43925  86.3981 346.4463 0002156  89.6559 270.4883 14.34218165391398
IRIDIUM 169             
1 43926U 19002E   26185.50206506  .00000411  00000+0  12782-3 0  9990
2 43926  86.4218  17.9524 0001656  91.8535 268.2853 14.38612613392713
IRIDIUM 172             
1 43927U 19002F   26185.41318158  .00000130  00000+0  39460-4 0  9999
2 43927  86.3981 346.3694 0002211  89.2010 270.9440 14.34218331391439
IRIDIUM 175             
1 43928U 19002G   26185.25794095  .00000388  00000+0  10860-3 0  9997
2 43928  86.4518 283.3855 0004510 137.4528 222.7023 14.43622605401448
IRIDIUM 171             
1 43929U 19002H   26185.39415394  .00000080  00000+0  21330-4 0  9999
2 43929  86.3990 346.6854 0002161  94.5820 265.5623 14.34218154391429
IRIDIUM 170             
1 43930U 19002J   26185.42901241  .00000928  00000+0  14326-3 0  9993
2 43930  86.6100 346.3320 0002394  84.6498 275.4992 14.72238861401791
IRIDIUM 167             
1 43931U 19002K   26185.45757936  .00000053  00000+0  11782-4 0  9990
2 43931  86.3981 346.3733 0002080  98.7458 261.3974 14.34218058391435
IRIDIUM 181             
1 56726U 23068S   26185.36947114  .00000344  00000+0  96305-4 0  9999
2 56726  86.4486  49.6065 0002498  86.3231 273.8255 14.43308227164917
IRIDIUM 177             
1 56727U 23068T   26185.62971726  .00001192  00000+0  15419-3 0  9993
2 56727  86.1979 320.5087 0002125  91.8553 268.2911 14.80016278168949
IRIDIUM 174             
1 56728U 23068U   26185.41663109  .00000964  00000+0  14904-3 0  9998
2 56728  86.6109 346.4864 0002180  80.5879 279.5584 14.72247009168554
IRIDIUM 178             
1 56729U 23068V   26185.48346038  .00001103  00000+0  14244-3 0  9998
2 56729  86.6532  18.1305 0002323  86.2247 273.9240 14.80020188168923
IRIDIUM 179             
1 56730U 23068W   26185.54576004  .00001208  00000+0  15634-3 0  9995
2 56730  86.6767  27.1358 0002244  89.4078 270.7401 14.80025245168936
